[{"OBJECT_NAME":"STARLINK-34277","OBJECT_ID":"2025-112L","EPOCH":"2026-03-09T17:42:52.780032","MEAN_MOTION":15.05662386,"ECCENTRICITY":0.0001317,"INCLINATION":97.6026,"RA_OF_ASC_NODE":121.5417,"ARG_OF_PERICENTER":74.6478,"MEAN_ANOMALY":285.4894,"EPHEMERIS_TYPE":0,"CLASSIFICATION_TYPE":"U","NORAD_CAT_ID":64156,"ELEMENT_SET_NO":999,"REV_AT_EPOCH":4331,"BSTAR":0.00040342702,"MEAN_MOTION_DOT":5.767e-5,"MEAN_MOTION_DDOT":0},{"OBJECT_NAME":"COSMOS 2251 DEB","OBJECT_ID":"1993-036AGL","EPOCH":"2026-03-09T14:26:26.254464","MEAN_MOTION":14.99089752,"ECCENTRICITY":0.0026997,"INCLINATION":74.0375,"RA_OF_ASC_NODE":36.8586,"ARG_OF_PERICENTER":98.2741,"MEAN_ANOMALY":23.5602,"EPHEMERIS_TYPE":0,"CLASSIFICATION_TYPE":"U","NORAD_CAT_ID":35023,"ELEMENT_SET_NO":999,"REV_AT_EPOCH":89579,"BSTAR":0.0019164,"MEAN_MOTION_DOT":0.00023496,"MEAN_MOTION_DDOT":0}]
